{
 "type": "FeatureCollection",
 "name": "Untitled layer",
 "features": [
  {
   "type": "Feature",
   "properties": {
    "Name": "NEH",
    "category": "lecture-hall",
    "indoorDescription": null,
    "accessibility": [],
    "safety": false
   },
   "geometry": {
    "type": "Point",
    "coordinates": [
     6.9795465,
     4.7961196,
     0.0
    ]
   }
  },
  {
   "type": "Feature",
   "properties": {
    "Name": "Department of Petrochemical Engineering(CHEMPET Building)",
    "category": "academic",
    "indoorDescription": null,
    "accessibility": [],
    "safety": false
   },
   "geometry": {
    "type": "Point",
    "coordinates": [
     6.9792308,
     4.7955746,
     0.0
    ]
   }
  },
  {
   "type": "Feature",
   "properties": {
    "Name": "Amphitheatre",
    "category": "academic",
    "indoorDescription": null,
    "accessibility": [],
    "safety": false
   },
   "geometry": {
    "type": "Point",
    "coordinates": [
     6.9783619,
     4.793193,
     0.0
    ]
   }
  },
  {
   "type": "Feature",
   "properties": {
    "Name": "EDH/EDR/MDR",
    "category": "lecture-hall",
    "indoorDescription": "EDH is upstairs, EDR/MDR is downstairs. It's written on the doors",
    "accessibility": [],
    "safety": false
   },
   "geometry": {
    "type": "Point",
    "coordinates": [
     6.9785325,
     4.7943276,
     0.0
    ]
   }
  },
  {
   "type": "Feature",
   "properties": {
    "Name": "FACULTY OF ENGINEERING",
    "category": "faculty",
    "indoorDescription": null,
    "accessibility": [],
    "safety": false
   },
   "geometry": {
    "type": "Point",
    "coordinates": [
     6.9772841,
     4.7951781,
     0.0
    ]
   }
  },
  {
   "type": "Feature",
   "properties": {
    "Name": "Microfinance Bank",
    "category": "bank",
    "indoorDescription": null,
    "accessibility": [],
    "safety": false
   },
   "geometry": {
    "type": "Point",
    "coordinates": [
     6.9784549,
     4.7950539,
     0.0
    ]
   }
  },
  {
   "type": "Feature",
   "properties": {
    "Name": "NDDC Hostel",
    "category": "hostel",
    "indoorDescription": null,
    "accessibility": [],
    "safety": false
   },
   "geometry": {
    "type": "Point",
    "coordinates": [
     6.9811905,
     4.7936616,
     0.0
    ]
   }
  },
  {
   "type": "Feature",
   "properties": {
    "Name": "Maracana Field",
    "category": "sports",
    "indoorDescription": null,
    "accessibility": [],
    "safety": false
   },
   "geometry": {
    "type": "Point",
    "coordinates": [
     6.9817832,
     4.7934045,
     0.0
    ]
   }
  },
  {
   "type": "Feature",
   "properties": {
    "Name": "Block 1G",
    "category": "hostel",
    "indoorDescription": null,
    "accessibility": [],
    "safety": false
   },
   "geometry": {
    "type": "Point",
    "coordinates": [
     6.9821198,
     4.7937866,
     0.0
    ]
   }
  },
  {
   "type": "Feature",
   "properties": {
    "Name": "Block 1F",
    "category": "hostel",
    "indoorDescription": null,
    "accessibility": [],
    "safety": false
   },
   "geometry": {
    "type": "Point",
    "coordinates": [
     6.982203,
     4.7937933,
     0.0
    ]
   }
  },
  {
   "type": "Feature",
   "properties": {
    "Name": "Block 2G",
    "category": "hostel",
    "indoorDescription": null,
    "accessibility": [],
    "safety": false
   },
   "geometry": {
    "type": "Point",
    "coordinates": [
     6.9821185,
     4.7941635,
     0.0
    ]
   }
  },
  {
   "type": "Feature",
   "properties": {
    "Name": "Block 3G",
    "category": "hostel",
    "indoorDescription": null,
    "accessibility": [],
    "safety": false
   },
   "geometry": {
    "type": "Point",
    "coordinates": [
     6.9821185,
     4.7945029,
     0.0
    ]
   }
  },
  {
   "type": "Feature",
   "properties": {
    "Name": "Block 4G",
    "category": "hostel",
    "indoorDescription": null,
    "accessibility": [],
    "safety": false
   },
   "geometry": {
    "type": "Point",
    "coordinates": [
     6.9821212,
     4.7948664,
     0.0
    ]
   }
  },
  {
   "type": "Feature",
   "properties": {
    "Name": "Block 5G",
    "category": "hostel",
    "indoorDescription": null,
    "accessibility": [],
    "safety": false
   },
   "geometry": {
    "type": "Point",
    "coordinates": [
     6.9821185,
     4.7952193,
     0.0
    ]
   }
  },
  {
   "type": "Feature",
   "properties": {
    "Name": "Block 5F(Man O War Block)",
    "category": "hostel",
    "indoorDescription": null,
    "accessibility": [],
    "safety": false
   },
   "geometry": {
    "type": "Point",
    "coordinates": [
     6.9821909,
     4.7952273,
     0.0
    ]
   }
  },
  {
   "type": "Feature",
   "properties": {
    "Name": "Block 4F",
    "category": "hostel",
    "indoorDescription": null,
    "accessibility": [],
    "safety": false
   },
   "geometry": {
    "type": "Point",
    "coordinates": [
     6.9821963,
     4.7948691,
     0.0
    ]
   }
  },
  {
   "type": "Feature",
   "properties": {
    "Name": "Block 3F",
    "category": "hostel",
    "indoorDescription": null,
    "accessibility": [],
    "safety": false
   },
   "geometry": {
    "type": "Point",
    "coordinates": [
     6.9821963,
     4.794503,
     0.0
    ]
   }
  },
  {
   "type": "Feature",
   "properties": {
    "Name": "Block 2F",
    "category": "hostel",
    "indoorDescription": null,
    "accessibility": [],
    "safety": false
   },
   "geometry": {
    "type": "Point",
    "coordinates": [
     6.982199,
     4.7941662,
     0.0
    ]
   }
  },
  {
   "type": "Feature",
   "properties": {
    "Name": "PG&H Hostel",
    "category": "hostel",
    "indoorDescription": null,
    "accessibility": [],
    "safety": false
   },
   "geometry": {
    "type": "Point",
    "coordinates": [
     6.9831119,
     4.7961877,
     0.0
    ]
   }
  },
  {
   "type": "Feature",
   "properties": {
    "Name": "PG field",
    "category": "sports",
    "indoorDescription": null,
    "accessibility": [],
    "safety": false
   },
   "geometry": {
    "type": "Point",
    "coordinates": [
     6.9835411,
     4.7965165,
     0.0
    ]
   }
  },
  {
   "type": "Feature",
   "properties": {
    "Name": "Mechanical Engineering Workshop",
    "category": "laboratory",
    "indoorDescription": null,
    "accessibility": [],
    "safety": false
   },
   "geometry": {
    "type": "Point",
    "coordinates": [
     6.9795726,
     4.7938104,
     0.0
    ]
   }
  },
  {
   "type": "Feature",
   "properties": {
    "Name": "New Marine Building",
    "category": "other",
    "indoorDescription": null,
    "accessibility": [],
    "safety": false
   },
   "geometry": {
    "type": "Point",
    "coordinates": [
     6.9798783,
     4.7933935,
     0.0
    ]
   }
  },
  {
   "type": "Feature",
   "properties": {
    "Name": "Basketball Court",
    "category": "sports",
    "indoorDescription": null,
    "accessibility": [],
    "safety": false
   },
   "geometry": {
    "type": "Point",
    "coordinates": [
     6.9778935,
     4.7932384,
     0.0
    ]
   }
  },
  {
   "type": "Feature",
   "properties": {
    "Name": "Engineering Faculty Office",
    "category": "faculty",
    "indoorDescription": null,
    "accessibility": [],
    "safety": false
   },
   "geometry": {
    "type": "Point",
    "coordinates": [
     6.978219,
     4.794655,
     0.0
    ]
   }
  },
  {
   "type": "Feature",
   "properties": {
    "Name": "Electrical Engineering Department Lab",
    "category": "laboratory",
    "indoorDescription": null,
    "accessibility": [],
    "safety": false
   },
   "geometry": {
    "type": "Point",
    "coordinates": [
     6.9799624,
     4.7951468,
     0.0
    ]
   }
  },
  {
   "type": "Feature",
   "properties": {
    "Name": "ICT Centre",
    "category": "academic",
    "indoorDescription": null,
    "accessibility": [],
    "safety": false
   },
   "geometry": {
    "type": "Point",
    "coordinates": [
     6.9777082,
     4.7962534,
     0.0
    ]
   }
  },
  {
   "type": "Feature",
   "properties": {
    "Name": "Faculty of Education",
    "category": "faculty",
    "indoorDescription": null,
    "accessibility": [],
    "safety": false
   },
   "geometry": {
    "type": "Point",
    "coordinates": [
     6.9774775,
     4.7972156,
     0.0
    ]
   }
  },
  {
   "type": "Feature",
   "properties": {
    "Name": "Department of Mathematics",
    "category": "department",
    "indoorDescription": null,
    "accessibility": [],
    "safety": false
   },
   "geometry": {
    "type": "Point",
    "coordinates": [
     6.9782728,
     4.7977434,
     0.0
    ]
   }
  },
  {
   "type": "Feature",
   "properties": {
    "Name": "SC buildings",
    "category": "lecture-hall",
    "indoorDescription": "SC 8, SC 9, SC 10, SC 11",
    "accessibility": [],
    "safety": false
   },
   "geometry": {
    "type": "Point",
    "coordinates": [
     6.9785678,
     4.7977541,
     0.0
    ]
   }
  },
  {
   "type": "Feature",
   "properties": {
    "Name": "Medlab building",
    "category": "lecture-hall",
    "indoorDescription": null,
    "accessibility": [],
    "safety": false
   },
   "geometry": {
    "type": "Point",
    "coordinates": [
     6.9786912,
     4.798294,
     0.0
    ]
   }
  },
  {
   "type": "Feature",
   "properties": {
    "Name": "Chemistry Lab",
    "category": "laboratory",
    "indoorDescription": null,
    "accessibility": [],
    "safety": false
   },
   "geometry": {
    "type": "Point",
    "coordinates": [
     6.9791525,
     4.7979786,
     0.0
    ]
   }
  },
  {
   "type": "Feature",
   "properties": {
    "Name": "Physics Lab",
    "category": "laboratory",
    "indoorDescription": null,
    "accessibility": [],
    "safety": false
   },
   "geometry": {
    "type": "Point",
    "coordinates": [
     6.9792598,
     4.7982993,
     0.0
    ]
   }
  },
  {
   "type": "Feature",
   "properties": {
    "Name": "Biology Lab",
    "category": "laboratory",
    "indoorDescription": null,
    "accessibility": [],
    "safety": false
   },
   "geometry": {
    "type": "Point",
    "coordinates": [
     6.9792732,
     4.7971874,
     0.0
    ]
   }
  },
  {
   "type": "Feature",
   "properties": {
    "Name": "Post Graduate School, RSU",
    "category": "lecture-hall",
    "indoorDescription": null,
    "accessibility": [],
    "safety": false
   },
   "geometry": {
    "type": "Point",
    "coordinates": [
     6.9806614,
     4.8000801,
     0.0
    ]
   }
  },
  {
   "type": "Feature",
   "properties": {
    "Name": "Convo Arena Field",
    "category": "sports",
    "indoorDescription": null,
    "accessibility": [],
    "safety": false
   },
   "geometry": {
    "type": "Point",
    "coordinates": [
     6.9794483,
     4.8011239,
     0.0
    ]
   }
  },
  {
   "type": "Feature",
   "properties": {
    "Name": "Convocation Arena",
    "category": "sports",
    "indoorDescription": null,
    "accessibility": [],
    "safety": false
   },
   "geometry": {
    "type": "Point",
    "coordinates": [
     6.9804568,
     4.801164,
     0.0
    ]
   }
  },
  {
   "type": "Feature",
   "properties": {
    "Name": "Faculty of Environmental Sciences, RSU",
    "category": "faculty",
    "indoorDescription": null,
    "accessibility": [],
    "safety": false
   },
   "geometry": {
    "type": "Point",
    "coordinates": [
     6.9793335,
     4.7995921,
     0.0
    ]
   }
  },
  {
   "type": "Feature",
   "properties": {
    "Name": "Faculty of Communication and Media Studies",
    "category": "faculty",
    "indoorDescription": null,
    "accessibility": [],
    "safety": false
   },
   "geometry": {
    "type": "Point",
    "coordinates": [
     6.9799826,
     4.7991293,
     0.0
    ]
   }
  },
  {
   "type": "Feature",
   "properties": {
    "Name": "Faculty of Management Sciences",
    "category": "faculty",
    "indoorDescription": null,
    "accessibility": [],
    "safety": false
   },
   "geometry": {
    "type": "Point",
    "coordinates": [
     6.9808784,
     4.7991801,
     0.0
    ]
   }
  },
  {
   "type": "Feature",
   "properties": {
    "Name": "Senate Building",
    "category": "admin",
    "indoorDescription": null,
    "accessibility": [],
    "safety": false
   },
   "geometry": {
    "type": "Point",
    "coordinates": [
     6.9822969,
     4.7996906,
     0.0
    ]
   }
  },
  {
   "type": "Feature",
   "properties": {
    "Name": "UST Main Gate",
    "category": "transit",
    "indoorDescription": null,
    "accessibility": [],
    "safety": false
   },
   "geometry": {
    "type": "Point",
    "coordinates": [
     6.9868486,
     4.8040847,
     0.0
    ]
   }
  },
  {
   "type": "Feature",
   "properties": {
    "Name": "UST Shuttle Park",
    "category": "transit",
    "indoorDescription": null,
    "accessibility": [],
    "safety": false
   },
   "geometry": {
    "type": "Point",
    "coordinates": [
     6.9862639,
     4.803502,
     0.0
    ]
   }
  },
  {
   "type": "Feature",
   "properties": {
    "Name": "Our Lady Seat of Wisdom Catholic Church",
    "category": "church",
    "indoorDescription": null,
    "accessibility": [],
    "safety": false
   },
   "geometry": {
    "type": "Point",
    "coordinates": [
     6.9844668,
     4.8021416,
     0.0
    ]
   }
  },
  {
   "type": "Feature",
   "properties": {
    "Name": "Chapel of Redemption",
    "category": "church",
    "indoorDescription": null,
    "accessibility": [],
    "safety": false
   },
   "geometry": {
    "type": "Point",
    "coordinates": [
     6.9844797,
     4.7999797,
     0.0
    ]
   }
  },
  {
   "type": "Feature",
   "properties": {
    "Name": "Fidelity Bank Plc, Rivers State University",
    "category": "bank",
    "indoorDescription": null,
    "accessibility": [],
    "safety": false
   },
   "geometry": {
    "type": "Point",
    "coordinates": [
     6.9807541,
     4.7910217,
     0.0
    ]
   }
  },
  {
   "type": "Feature",
   "properties": {
    "Name": "Ref 2",
    "category": "eatery",
    "indoorDescription": null,
    "accessibility": [],
    "safety": false
   },
   "geometry": {
    "type": "Point",
    "coordinates": [
     6.9811967,
     4.7915269,
     0.0
    ]
   }
  },
  {
   "type": "Feature",
   "properties": {
    "Name": "UBA bank, UST Branch",
    "category": "bank",
    "indoorDescription": null,
    "accessibility": [],
    "safety": false
   },
   "geometry": {
    "type": "Point",
    "coordinates": [
     6.9816983,
     4.7920855,
     0.0
    ]
   }
  },
  {
   "type": "Feature",
   "properties": {
    "Name": "Access Bank Plc RSU Branch",
    "category": "bank",
    "indoorDescription": null,
    "accessibility": [],
    "safety": false
   },
   "geometry": {
    "type": "Point",
    "coordinates": [
     6.9814596,
     4.7917888,
     0.0
    ]
   }
  },
  {
   "type": "Feature",
   "properties": {
    "Name": "Shopping Complex",
    "category": "amenity",
    "indoorDescription": null,
    "accessibility": [],
    "safety": false
   },
   "geometry": {
    "type": "Point",
    "coordinates": [
     6.9821369,
     4.7915442,
     0.0
    ]
   }
  },
  {
   "type": "Feature",
   "properties": {
    "Name": "Hostel C",
    "category": "hostel",
    "indoorDescription": null,
    "accessibility": [],
    "safety": false
   },
   "geometry": {
    "type": "Point",
    "coordinates": [
     6.9822844,
     4.7916885,
     0.0
    ]
   }
  },
  {
   "type": "Feature",
   "properties": {
    "Name": "Hostel D",
    "category": "hostel",
    "indoorDescription": null,
    "accessibility": [],
    "safety": false
   },
   "geometry": {
    "type": "Point",
    "coordinates": [
     6.982145,
     4.7920012,
     0.0
    ]
   }
  },
  {
   "type": "Feature",
   "properties": {
    "Name": "Hostel E",
    "category": "hostel",
    "indoorDescription": null,
    "accessibility": [],
    "safety": false
   },
   "geometry": {
    "type": "Point",
    "coordinates": [
     6.9818419,
     4.7902665,
     0.0
    ]
   }
  },
  {
   "type": "Feature",
   "properties": {
    "Name": "Aluta House",
    "category": "hostel",
    "indoorDescription": null,
    "accessibility": [],
    "safety": false
   },
   "geometry": {
    "type": "Point",
    "coordinates": [
     6.9824053,
     4.7925707,
     0.0
    ]
   }
  },
  {
   "type": "Feature",
   "properties": {
    "Name": "Back Gate Shuttle Park",
    "category": "transit",
    "indoorDescription": null,
    "accessibility": [],
    "safety": false
   },
   "geometry": {
    "type": "Point",
    "coordinates": [
     6.9826601,
     4.7927978,
     0.0
    ]
   }
  },
  {
   "type": "Feature",
   "properties": {
    "Name": "F&G hostel",
    "category": "hostel",
    "indoorDescription": null,
    "accessibility": [],
    "safety": false
   },
   "geometry": {
    "type": "Point",
    "coordinates": [
     6.9821606,
     4.7936342,
     0.0
    ]
   }
  },
  {
   "type": "Feature",
   "properties": {
    "Name": "Love Garden",
    "category": "landmark",
    "indoorDescription": null,
    "accessibility": [],
    "safety": false
   },
   "geometry": {
    "type": "Point",
    "coordinates": [
     6.9820085,
     4.7928433,
     0.0
    ]
   }
  },
  {
   "type": "Feature",
   "properties": {
    "Name": "UST Bookshop",
    "category": "amenity",
    "indoorDescription": null,
    "accessibility": [],
    "safety": false
   },
   "geometry": {
    "type": "Point",
    "coordinates": [
     6.9819629,
     4.7925158,
     0.0
    ]
   }
  },
  {
   "type": "Feature",
   "properties": {
    "Name": "Post Office",
    "category": "amenity",
    "indoorDescription": null,
    "accessibility": [],
    "safety": false
   },
   "geometry": {
    "type": "Point",
    "coordinates": [
     6.9820688,
     4.7925506,
     0.0
    ]
   }
  },
  {
   "type": "Feature",
   "properties": {
    "Name": "RSU Library",
    "category": "library",
    "indoorDescription": null,
    "accessibility": [],
    "safety": false
   },
   "geometry": {
    "type": "Point",
    "coordinates": [
     6.9780586,
     4.8014589,
     0.0
    ]
   }
  },
  {
   "type": "Feature",
   "properties": {
    "Name": "Central Administration Building, RSU",
    "category": "admin",
    "indoorDescription": null,
    "accessibility": [],
    "safety": false
   },
   "geometry": {
    "type": "Point",
    "coordinates": [
     6.983567,
     4.7992948,
     0.0
    ]
   }
  },
  {
   "type": "Feature",
   "properties": {
    "Name": "RSU Filling Station",
    "category": "amenity",
    "indoorDescription": null,
    "accessibility": [],
    "safety": false
   },
   "geometry": {
    "type": "Point",
    "coordinates": [
     6.9839961,
     4.7974987,
     0.0
    ]
   }
  },
  {
   "type": "Feature",
   "properties": {
    "Name": "Faculty of Humanities",
    "category": "faculty",
    "indoorDescription": null,
    "accessibility": [],
    "safety": false
   },
   "geometry": {
    "type": "Point",
    "coordinates": [
     6.9806031,
     4.7973304,
     0.0
    ]
   }
  },
  {
   "type": "Feature",
   "properties": {
    "Name": "Faculty of Social Sciences",
    "category": "faculty",
    "indoorDescription": null,
    "accessibility": [],
    "safety": false
   },
   "geometry": {
    "type": "Point",
    "coordinates": [
     6.9805924,
     4.797774,
     0.0
    ]
   }
  },
  {
   "type": "Feature",
   "properties": {
    "Name": "Faculty of Maritime Science",
    "category": "faculty",
    "indoorDescription": null,
    "accessibility": [],
    "safety": false
   },
   "geometry": {
    "type": "Point",
    "coordinates": [
     6.9803376,
     4.7981242,
     0.0
    ]
   }
  },
  {
   "type": "Feature",
   "properties": {
    "Name": "Faculty of Law, Rivers State University",
    "category": "faculty",
    "indoorDescription": null,
    "accessibility": [],
    "safety": false
   },
   "geometry": {
    "type": "Point",
    "coordinates": [
     6.9776094,
     4.7992414,
     0.0
    ]
   }
  },
  {
   "type": "Feature",
   "properties": {
    "Name": "Faculty of Geology",
    "category": "faculty",
    "indoorDescription": null,
    "accessibility": [],
    "safety": false
   },
   "geometry": {
    "type": "Point",
    "coordinates": [
     6.9769978,
     4.7996156,
     0.0
    ]
   }
  },
  {
   "type": "Feature",
   "properties": {
    "Name": "Medical Centre RSU",
    "category": "medical",
    "indoorDescription": null,
    "accessibility": [],
    "safety": true
   },
   "geometry": {
    "type": "Point",
    "coordinates": [
     6.9770086,
     4.7964723,
     0.0
    ]
   }
  },
  {
   "type": "Feature",
   "properties": {
    "Name": "Faculty of Science",
    "category": "faculty",
    "indoorDescription": null,
    "accessibility": [],
    "safety": false
   },
   "geometry": {
    "type": "Point",
    "coordinates": [
     6.9772231,
     4.7984716,
     0.0
    ]
   }
  },
  {
   "type": "Feature",
   "properties": {
    "Name": "College of Medical Sciences, RSU",
    "category": "lecture-hall",
    "indoorDescription": null,
    "accessibility": [],
    "safety": false
   },
   "geometry": {
    "type": "Point",
    "coordinates": [
     6.9811286,
     4.7962554,
     0.0
    ]
   }
  },
  {
   "type": "Feature",
   "properties": {
    "Name": "Science Faculty Office",
    "category": "faculty",
    "indoorDescription": null,
    "accessibility": [],
    "safety": false
   },
   "geometry": {
    "type": "Point",
    "coordinates": [
     6.9782136,
     4.7979692,
     0.0
    ]
   }
  },
  {
   "type": "Feature",
   "properties": {
    "Name": "Food Science and Technology",
    "category": "department",
    "indoorDescription": null,
    "accessibility": [],
    "safety": false
   },
   "geometry": {
    "type": "Point",
    "coordinates": [
     6.9796619,
     4.7965246,
     0.0
    ]
   }
  },
  {
   "type": "Feature",
   "properties": {
    "Name": "Department of Microbiology",
    "category": "department",
    "indoorDescription": null,
    "accessibility": [],
    "safety": false
   },
   "geometry": {
    "type": "Point",
    "coordinates": [
     6.9799972,
     4.7966395,
     0.0
    ]
   }
  },
  {
   "type": "Feature",
   "properties": {
    "Name": "Foundation Studies Unit",
    "category": "academic",
    "indoorDescription": null,
    "accessibility": [],
    "safety": false
   },
   "geometry": {
    "type": "Point",
    "coordinates": [
     6.9769917,
     4.7954387,
     0.0
    ]
   }
  },
  {
   "type": "Feature",
   "properties": {
    "Name": "Senior Staff Club RSU",
    "category": "eatery",
    "indoorDescription": null,
    "accessibility": [],
    "safety": false
   },
   "geometry": {
    "type": "Point",
    "coordinates": [
     6.977765,
     4.7925456,
     0.0
    ]
   }
  },
  {
   "type": "Feature",
   "properties": {
    "Name": "CCE(Centre for Continuous Education)",
    "category": "lecture-hall",
    "indoorDescription": null,
    "accessibility": [],
    "safety": false
   },
   "geometry": {
    "type": "Point",
    "coordinates": [
     6.9834279,
     4.7938265,
     0.0
    ]
   }
  },
  {
   "type": "Feature",
   "properties": {
    "Name": "UST Back Gate",
    "category": "transit",
    "indoorDescription": null,
    "accessibility": [],
    "safety": false
   },
   "geometry": {
    "type": "Point",
    "coordinates": [
     6.9841565,
     4.7935733,
     0.0
    ]
   }
  },
  {
   "type": "Feature",
   "properties": {
    "Name": "Hostel A",
    "category": "hostel",
    "indoorDescription": null,
    "accessibility": [],
    "safety": false
   },
   "geometry": {
    "type": "Point",
    "coordinates": [
     6.9838672,
     4.7929479,
     0.0
    ]
   }
  },
  {
   "type": "Feature",
   "properties": {
    "Name": "Hostel B",
    "category": "hostel",
    "indoorDescription": null,
    "accessibility": [],
    "safety": false
   },
   "geometry": {
    "type": "Point",
    "coordinates": [
     6.9830693,
     4.7928196,
     0.0
    ]
   }
  },
  {
   "type": "Feature",
   "properties": {
    "Name": "Tennis Court",
    "category": "sports",
    "indoorDescription": null,
    "accessibility": [],
    "safety": false
   },
   "geometry": {
    "type": "Point",
    "coordinates": [
     6.9812245,
     4.7906754,
     0.0
    ]
   }
  }
 ]
}